start=new Date('2022-08-05T00:00:00.000Z').valueOf();
sats=[{"ARG_OF_PERICENTER":"336.6075","MEAN_MOTION":"15.73247657","TIME_SYSTEM":"UTC","SEMIMAJOR_AXIS":"6727.759","MEAN_ANOMALY":"297.3878","EPOCH":"2022-08-04T22:00:00.999936","GP_ID":"209592505","RCS_SIZE":"LARGE","REF_FRAME":"TEME","OBJECT_ID":"2022-083Z","BSTAR":"-0.00079385000000","OBJECT_TYPE":"PAYLOAD","INCLINATION":"53.2178","CLASSIFICATION_TYPE":"U","PERIOD":"91.530","TLE_LINE1":"1 53155U 22083Z   22216.91667824 -.00110845  00000-0 -79385-3 0  9996","FILE":"3529274","ELEMENT_SET_NO":"999","RA_OF_ASC_NODE":"316.1310","COUNTRY_CODE":"US","REV_AT_EPOCH":"130","PERIAPSIS":"347.392","OBJECT_NAME":"STARLINK-4088","TLE_LINE2":"2 53155  53.2178 316.1310 0003318 336.6075 297.3878 15.73247657  1302","MEAN_ELEMENT_THEORY":"SGP4","SITE":"AFETR","LAUNCH_DATE":"2022-07-17","ECCENTRICITY":"0.00033180","MEAN_MOTION_DDOT":"0.0000000000000","MEAN_MOTION_DOT":"-0.00110845","DECAY_DATE":null,"APOAPSIS":"351.857","EPHEMERIS_TYPE":"0","CENTER_NAME":"EARTH","NORAD_CAT_ID":"53155"},{"TLE_LINE1":"1 53156U 22083AA  22216.91667824 -.00011424  00000-0 -77065-4 0  9994","FILE":"3529274","PERIOD":"91.533","ELEMENT_SET_NO":"999","RA_OF_ASC_NODE":"316.1323","OBJECT_NAME":"STARLINK-4087","COUNTRY_CODE":"US","REV_AT_EPOCH":"130","PERIAPSIS":"348.419","SITE":"AFETR","ECCENTRICITY":"0.00019810","LAUNCH_DATE":"2022-07-17","TLE_LINE2":"2 53156  53.2178 316.1323 0001981  25.9848 247.4578 15.73202883  1302","MEAN_ELEMENT_THEORY":"SGP4","MEAN_MOTION_DDOT":"0.0000000000000","EPHEMERIS_TYPE":"0","CENTER_NAME":"EARTH","MEAN_MOTION_DOT":"-0.00011424","DECAY_DATE":null,"APOAPSIS":"351.085","NORAD_CAT_ID":"53156","MEAN_MOTION":"15.73202883","ARG_OF_PERICENTER":"25.9848","MEAN_ANOMALY":"247.4578","EPOCH":"2022-08-04T22:00:00.999936","TIME_SYSTEM":"UTC","SEMIMAJOR_AXIS":"6727.887","GP_ID":"209592637","RCS_SIZE":"LARGE","OBJECT_ID":"2022-083AA","REF_FRAME":"TEME","CLASSIFICATION_TYPE":"U","INCLINATION":"53.2178","BSTAR":"-0.00007706500000","OBJECT_TYPE":"PAYLOAD"},{"ARG_OF_PERICENTER":"31.6699","MEAN_MOTION":"15.73227146","SEMIMAJOR_AXIS":"6727.818","TIME_SYSTEM":"UTC","EPOCH":"2022-08-04T22:00:00.999936","MEAN_ANOMALY":"243.5470","RCS_SIZE":"LARGE","GP_ID":"209592768","OBJECT_ID":"2022-083AB","REF_FRAME":"TEME","OBJECT_TYPE":"PAYLOAD","BSTAR":"-0.00076685000000","INCLINATION":"53.2179","CLASSIFICATION_TYPE":"U","PERIOD":"91.532","FILE":"3529274","TLE_LINE1":"1 53157U 22083AB  22216.91667824 -.00107018  00000-0 -76685-3 0  9996","ELEMENT_SET_NO":"999","RA_OF_ASC_NODE":"316.1293","PERIAPSIS":"348.366","REV_AT_EPOCH":"130","COUNTRY_CODE":"US","OBJECT_NAME":"STARLINK-4093","MEAN_ELEMENT_THEORY":"SGP4","TLE_LINE2":"2 53157  53.2179 316.1293 0001957  31.6699 243.5470 15.73227146  1308","ECCENTRICITY":"0.00019570","LAUNCH_DATE":"2022-07-17","SITE":"AFETR","MEAN_MOTION_DDOT":"0.0000000000000","DECAY_DATE":null,"APOAPSIS":"350.999","MEAN_MOTION_DOT":"-0.00107018","CENTER_NAME":"EARTH","EPHEMERIS_TYPE":"0","NORAD_CAT_ID":"53157"},{"TLE_LINE1":"1 53158U 22083AC  22216.91667824 -.00074838  00000-0 -53286-3 0  9992","FILE":"3529274","PERIOD":"91.532","ELEMENT_SET_NO":"999","RA_OF_ASC_NODE":"316.1324","OBJECT_NAME":"STARLINK-4054","COUNTRY_CODE":"US","REV_AT_EPOCH":"130","PERIAPSIS":"348.373","SITE":"AFETR","ECCENTRICITY":"0.00019430","LAUNCH_DATE":"2022-07-17","TLE_LINE2":"2 53158  53.2175 316.1324 0001943  29.9662 242.8701 15.73228114  1300","MEAN_ELEMENT_THEORY":"SGP4","MEAN_MOTION_DDOT":"0.0000000000000","EPHEMERIS_TYPE":"0","CENTER_NAME":"EARTH","MEAN_MOTION_DOT":"-0.00074838","APOAPSIS":"350.987","DECAY_DATE":null,"NORAD_CAT_ID":"53158","MEAN_MOTION":"15.73228114","ARG_OF_PERICENTER":"29.9662","EPOCH":"2022-08-04T22:00:00.999936","MEAN_ANOMALY":"242.8701","SEMIMAJOR_AXIS":"6727.815","TIME_SYSTEM":"UTC","GP_ID":"209593029","RCS_SIZE":"LARGE","REF_FRAME":"TEME","OBJECT_ID":"2022-083AC","INCLINATION":"53.2175","CLASSIFICATION_TYPE":"U","BSTAR":"-0.00053286000000","OBJECT_TYPE":"PAYLOAD"},{"APOAPSIS":"351.746","DECAY_DATE":null,"MEAN_MOTION_DOT":"-0.00010093","CENTER_NAME":"EARTH","EPHEMERIS_TYPE":"0","NORAD_CAT_ID":"53159","MEAN_ELEMENT_THEORY":"SGP4","TLE_LINE2":"2 53159  53.2185 316.1284 0002959 342.4206 294.0259 15.73201646  1300","ECCENTRICITY":"0.00029590","LAUNCH_DATE":"2022-07-17","SITE":"AFETR","MEAN_MOTION_DDOT":"0.0000000000000","RA_OF_ASC_NODE":"316.1284","PERIAPSIS":"347.765","REV_AT_EPOCH":"130","COUNTRY_CODE":"US","OBJECT_NAME":"STARLINK-4111","PERIOD":"91.533","FILE":"3529274","TLE_LINE1":"1 53159U 22083AD  22216.91667824 -.00010093  00000-0 -67540-4 0  9995","ELEMENT_SET_NO":"999","REF_FRAME":"TEME","OBJECT_ID":"2022-083AD","OBJECT_TYPE":"PAYLOAD","BSTAR":"-0.00006754000000","CLASSIFICATION_TYPE":"U","INCLINATION":"53.2185","RCS_SIZE":"LARGE","GP_ID":"209592898","TIME_SYSTEM":"UTC","SEMIMAJOR_AXIS":"6727.890","MEAN_ANOMALY":"294.0259","EPOCH":"2022-08-04T22:00:00.999936","ARG_OF_PERICENTER":"342.4206","MEAN_MOTION":"15.73201646"},{"SITE":"AFETR","LAUNCH_DATE":"2022-07-17","ECCENTRICITY":"0.00019270","TLE_LINE2":"2 53160  53.2184 316.1320 0001927  24.2020 250.4379 15.73199440  1302","MEAN_ELEMENT_THEORY":"SGP4","MEAN_MOTION_DDOT":"0.0000000000000","EPHEMERIS_TYPE":"0","CENTER_NAME":"EARTH","MEAN_MOTION_DOT":"-0.00009825","DECAY_DATE":null,"APOAPSIS":"351.058","NORAD_CAT_ID":"53160","TLE_LINE1":"1 53160U 22083AE  22216.91667824 -.00009825  00000-0 -65658-4 0  9996","FILE":"3529274","PERIOD":"91.533","ELEMENT_SET_NO":"999","RA_OF_ASC_NODE":"316.1320","OBJECT_NAME":"STARLINK-4096","REV_AT_EPOCH":"130","COUNTRY_CODE":"US","PERIAPSIS":"348.465","GP_ID":"209592245","RCS_SIZE":"LARGE","OBJECT_ID":"2022-083AE","REF_FRAME":"TEME","INCLINATION":"53.2184","CLASSIFICATION_TYPE":"U","BSTAR":"-0.00006565800000","OBJECT_TYPE":"PAYLOAD","MEAN_MOTION":"15.73199440","ARG_OF_PERICENTER":"24.2020","MEAN_ANOMALY":"250.4379","EPOCH":"2022-08-04T22:00:00.999936","TIME_SYSTEM":"UTC","SEMIMAJOR_AXIS":"6727.897"},{"MEAN_MOTION":"15.73242707","ARG_OF_PERICENTER":"34.6612","MEAN_ANOMALY":"243.5199","EPOCH":"2022-08-04T22:00:00.999936","SEMIMAJOR_AXIS":"6727.773","TIME_SYSTEM":"UTC","RCS_SIZE":"LARGE","GP_ID":"209592376","REF_FRAME":"TEME","OBJECT_ID":"2022-083AF","INCLINATION":"53.2177","CLASSIFICATION_TYPE":"U","OBJECT_TYPE":"PAYLOAD","BSTAR":"-0.00073757000000","FILE":"3529274","TLE_LINE1":"1 53161U 22083AF  22216.91667824 -.00103076  00000-0 -73757-3 0  9998","PERIOD":"91.531","ELEMENT_SET_NO":"999","RA_OF_ASC_NODE":"316.1218","OBJECT_NAME":"STARLINK-4055","PERIAPSIS":"348.168","REV_AT_EPOCH":"130","COUNTRY_CODE":"US","LAUNCH_DATE":"2022-07-17","ECCENTRICITY":"0.00021860","SITE":"AFETR","MEAN_ELEMENT_THEORY":"SGP4","TLE_LINE2":"2 53161  53.2177 316.1218 0002186  34.6612 243.5199 15.73242707  1309","MEAN_MOTION_DDOT":"0.0000000000000","CENTER_NAME":"EARTH","EPHEMERIS_TYPE":"0","APOAPSIS":"351.109","DECAY_DATE":null,"MEAN_MOTION_DOT":"-0.00103076","NORAD_CAT_ID":"53161"},{"OBJECT_NAME":"STARLINK-4114","COUNTRY_CODE":"US","REV_AT_EPOCH":"130","PERIAPSIS":"348.320","RA_OF_ASC_NODE":"316.1282","ELEMENT_SET_NO":"999","TLE_LINE1":"1 53162U 22083AG  22216.91667824 -.00104262  00000-0 -74683-3 0  9996","FILE":"3529274","PERIOD":"91.532","NORAD_CAT_ID":"53162","EPHEMERIS_TYPE":"0","CENTER_NAME":"EARTH","MEAN_MOTION_DOT":"-0.00104262","DECAY_DATE":null,"APOAPSIS":"351.063","MEAN_MOTION_DDOT":"0.0000000000000","SITE":"AFETR","LAUNCH_DATE":"2022-07-17","ECCENTRICITY":"0.00020390","TLE_LINE2":"2 53162  53.2181 316.1282 0002039  29.5175 246.3004 15.73224096  1307","MEAN_ELEMENT_THEORY":"SGP4","EPOCH":"2022-08-04T22:00:00.999936","MEAN_ANOMALY":"246.3004","TIME_SYSTEM":"UTC","SEMIMAJOR_AXIS":"6727.826","MEAN_MOTION":"15.73224096","ARG_OF_PERICENTER":"29.5175","INCLINATION":"53.2181","CLASSIFICATION_TYPE":"U","BSTAR":"-0.00074683000000","OBJECT_TYPE":"PAYLOAD","REF_FRAME":"TEME","OBJECT_ID":"2022-083AG","GP_ID":"209593160","RCS_SIZE":"LARGE"},{"COUNTRY_CODE":"US","REV_AT_EPOCH":"130","PERIAPSIS":"348.507","OBJECT_NAME":"STARLINK-4104","RA_OF_ASC_NODE":"316.1204","ELEMENT_SET_NO":"999","PERIOD":"91.532","TLE_LINE1":"1 53163U 22083AH  22216.91667824 -.00009903  00000-0 -66161-4 0  9996","FILE":"3529274","NORAD_CAT_ID":"53163","MEAN_MOTION_DOT":"-0.00009903","DECAY_DATE":null,"APOAPSIS":"350.906","EPHEMERIS_TYPE":"0","CENTER_NAME":"EARTH","MEAN_MOTION_DDOT":"0.0000000000000","TLE_LINE2":"2 53163  53.2179 316.1204 0001783  33.5439 245.8459 15.73218845  1305","MEAN_ELEMENT_THEORY":"SGP4","SITE":"AFETR","ECCENTRICITY":"0.00017830","LAUNCH_DATE":"2022-07-17","SEMIMAJOR_AXIS":"6727.841","TIME_SYSTEM":"UTC","EPOCH":"2022-08-04T22:00:00.999936","MEAN_ANOMALY":"245.8459","ARG_OF_PERICENTER":"33.5439","MEAN_MOTION":"15.73218845","BSTAR":"-0.00006616100000","OBJECT_TYPE":"PAYLOAD","INCLINATION":"53.2179","CLASSIFICATION_TYPE":"U","OBJECT_ID":"2022-083AH","REF_FRAME":"TEME","GP_ID":"209592506","RCS_SIZE":"LARGE"},{"ARG_OF_PERICENTER":"35.9208","MEAN_MOTION":"15.73221075","SEMIMAJOR_AXIS":"6727.835","TIME_SYSTEM":"UTC","EPOCH":"2022-08-04T22:00:00.999936","MEAN_ANOMALY":"241.6861","RCS_SIZE":"LARGE","GP_ID":"209592638","OBJECT_TYPE":"PAYLOAD","BSTAR":"-0.00051733000000","INCLINATION":"53.2174","CLASSIFICATION_TYPE":"U","OBJECT_ID":"2022-083AJ","REF_FRAME":"TEME","ELEMENT_SET_NO":"999","PERIOD":"91.532","FILE":"3529274","TLE_LINE1":"1 53164U 22083AJ  22216.91667824 -.00072672  00000-0 -51733-3 0  9998","PERIAPSIS":"348.387","COUNTRY_CODE":"US","REV_AT_EPOCH":"130","OBJECT_NAME":"STARLINK-4116","RA_OF_ASC_NODE":"316.1218","MEAN_MOTION_DDOT":"0.0000000000000","MEAN_ELEMENT_THEORY":"SGP4","TLE_LINE2":"2 53164  53.2174 316.1218 0001951  35.9208 241.6861 15.73221075  1303","LAUNCH_DATE":"2022-07-17","ECCENTRICITY":"0.00019510","SITE":"AFETR","NORAD_CAT_ID":"53164","APOAPSIS":"351.013","DECAY_DATE":null,"MEAN_MOTION_DOT":"-0.00072672","CENTER_NAME":"EARTH","EPHEMERIS_TYPE":"0"}];
